start=new Date('2022-06-18T00:00:00.000Z').valueOf();
sats=[{"CENTER_NAME":"EARTH","OBJECT_ID":"2020-057AV","EPHEMERIS_TYPE":"0","DECAY_DATE":null,"PERIAPSIS":"546.080","MEAN_MOTION_DOT":"0.00001495","MEAN_MOTION":"15.06402011","MEAN_ANOMALY":"309.6039","REV_AT_EPOCH":"10215","REF_FRAME":"TEME","SEMIMAJOR_AXIS":"6925.342","ELEMENT_SET_NO":"999","EPOCH":"2022-06-15T15:45:27.128736","COUNTRY_CODE":"US","RA_OF_ASC_NODE":"295.5076","TIME_SYSTEM":"UTC","PERIOD":"95.592","TLE_LINE2":"2 46160  53.0545 295.5076 0001628  50.5094 309.6039 15.06402011102154","ECCENTRICITY":"0.00016280","ARG_OF_PERICENTER":"50.5094","INCLINATION":"53.0545","FILE":"3496999","LAUNCH_DATE":"2020-08-18","NORAD_CAT_ID":"46160","TLE_LINE1":"1 46160U 20057AV  22166.65656399  .00001495  00000-0  11927-3 0  9999","BSTAR":"0.00011927000000","RCS_SIZE":"LARGE","OBJECT_TYPE":"PAYLOAD","CLASSIFICATION_TYPE":"U","MEAN_MOTION_DDOT":"0.0000000000000","MEAN_ELEMENT_THEORY":"SGP4","GP_ID":"206235746","SITE":"AFETR","APOAPSIS":"548.335","OBJECT_NAME":"STARLINK-1598"},{"OBJECT_ID":"2020-057AW","CENTER_NAME":"EARTH","MEAN_ANOMALY":"271.4567","REV_AT_EPOCH":"10215","EPHEMERIS_TYPE":"0","DECAY_DATE":null,"PERIAPSIS":"546.301","MEAN_MOTION_DOT":"-0.00000632","MEAN_MOTION":"15.06392338","SEMIMAJOR_AXIS":"6925.372","REF_FRAME":"TEME","RA_OF_ASC_NODE":"295.6038","ELEMENT_SET_NO":"999","EPOCH":"2022-06-15T15:13:37.195392","COUNTRY_CODE":"US","TIME_SYSTEM":"UTC","TLE_LINE2":"2 46161  53.0548 295.6038 0001352  88.6577 271.4567 15.06392338102151","ECCENTRICITY":"0.00013520","PERIOD":"95.593","ARG_OF_PERICENTER":"88.6577","LAUNCH_DATE":"2020-08-18","INCLINATION":"53.0548","FILE":"3496999","NORAD_CAT_ID":"46161","TLE_LINE1":"1 46161U 20057AW  22166.63445828 -.00000632  00000-0 -23548-4 0  9998","RCS_SIZE":"LARGE","BSTAR":"-0.00002354800000","OBJECT_TYPE":"PAYLOAD","CLASSIFICATION_TYPE":"U","MEAN_MOTION_DDOT":"0.0000000000000","MEAN_ELEMENT_THEORY":"SGP4","APOAPSIS":"548.173","GP_ID":"206235997","SITE":"AFETR","OBJECT_NAME":"STARLINK-1600"},{"TIME_SYSTEM":"UTC","TLE_LINE2":"2 46162  53.0539 294.7109 0001669  82.0349 278.0829 15.06390100102190","ECCENTRICITY":"0.00016690","PERIOD":"95.593","ARG_OF_PERICENTER":"82.0349","RA_OF_ASC_NODE":"294.7109","ELEMENT_SET_NO":"999","EPOCH":"2022-06-15T20:05:33.477792","COUNTRY_CODE":"US","LAUNCH_DATE":"2020-08-18","INCLINATION":"53.0539","FILE":"3496999","OBJECT_ID":"2020-057AX","CENTER_NAME":"EARTH","SEMIMAJOR_AXIS":"6925.379","REF_FRAME":"TEME","MEAN_ANOMALY":"278.0829","REV_AT_EPOCH":"10219","EPHEMERIS_TYPE":"0","DECAY_DATE":null,"MEAN_MOTION":"15.06390100","PERIAPSIS":"546.088","MEAN_MOTION_DOT":"-0.00002452","MEAN_MOTION_DDOT":"0.0000000000000","MEAN_ELEMENT_THEORY":"SGP4","CLASSIFICATION_TYPE":"U","OBJECT_TYPE":"PAYLOAD","OBJECT_NAME":"STARLINK-1603","APOAPSIS":"548.400","GP_ID":"206234745","SITE":"AFETR","RCS_SIZE":"LARGE","BSTAR":"-0.00014579000000","NORAD_CAT_ID":"46162","TLE_LINE1":"1 46162U 20057AX  22166.83719303 -.00002452  00000-0 -14579-3 0  9998"},{"OBJECT_NAME":"STARLINK-1610","APOAPSIS":"548.382","SITE":"AFETR","GP_ID":"206286749","MEAN_ELEMENT_THEORY":"SGP4","MEAN_MOTION_DDOT":"0.0000000000000","OBJECT_TYPE":"PAYLOAD","CLASSIFICATION_TYPE":"U","RCS_SIZE":"LARGE","BSTAR":"-0.00000070604000","TLE_LINE1":"1 46163U 20057AY  22167.03438668 -.00000292  00000-0 -70604-6 0  9998","NORAD_CAT_ID":"46163","LAUNCH_DATE":"2020-08-18","FILE":"3497002","INCLINATION":"53.0534","TLE_LINE2":"2 46163  53.0534 273.8049 0001659  59.5475 300.5678 15.06393639101243","PERIOD":"95.593","ECCENTRICITY":"0.00016590","ARG_OF_PERICENTER":"59.5475","TIME_SYSTEM":"UTC","RA_OF_ASC_NODE":"273.8049","COUNTRY_CODE":"US","EPOCH":"2022-06-16T00:49:31.009152","ELEMENT_SET_NO":"999","SEMIMAJOR_AXIS":"6925.368","REF_FRAME":"TEME","REV_AT_EPOCH":"10124","MEAN_ANOMALY":"300.5678","MEAN_MOTION":"15.06393639","PERIAPSIS":"546.084","MEAN_MOTION_DOT":"-0.00000292","DECAY_DATE":null,"EPHEMERIS_TYPE":"0","OBJECT_ID":"2020-057AY","CENTER_NAME":"EARTH"},{"RCS_SIZE":"LARGE","BSTAR":"0.00011745000000","TLE_LINE1":"1 46164U 20057AZ  22167.03068304  .00001469  00000-0  11745-3 0  9998","NORAD_CAT_ID":"46164","OBJECT_NAME":"STARLINK-1612","APOAPSIS":"548.184","SITE":"AFETR","GP_ID":"206286496","MEAN_ELEMENT_THEORY":"SGP4","MEAN_MOTION_DDOT":"0.0000000000000","OBJECT_TYPE":"PAYLOAD","CLASSIFICATION_TYPE":"U","SEMIMAJOR_AXIS":"6925.334","REF_FRAME":"TEME","MEAN_ANOMALY":"279.6831","REV_AT_EPOCH":"10250","PERIAPSIS":"546.214","MEAN_MOTION_DOT":"0.00001469","MEAN_MOTION":"15.06404738","EPHEMERIS_TYPE":"0","DECAY_DATE":null,"OBJECT_ID":"2020-057AZ","CENTER_NAME":"EARTH","LAUNCH_DATE":"2020-08-18","FILE":"3497002","INCLINATION":"53.0555","TLE_LINE2":"2 46164  53.0555 273.8252 0001422  80.4319 279.6831 15.06404738102501","PERIOD":"95.592","ECCENTRICITY":"0.00014220","ARG_OF_PERICENTER":"80.4319","TIME_SYSTEM":"UTC","RA_OF_ASC_NODE":"273.8252","COUNTRY_CODE":"US","EPOCH":"2022-06-16T00:44:11.014656","ELEMENT_SET_NO":"999"},{"TIME_SYSTEM":"UTC","TLE_LINE2":"2 46165  53.0537 312.6764 0001342 166.2439 193.8590 15.12794747101315","PERIOD":"95.188","ARG_OF_PERICENTER":"166.2439","ECCENTRICITY":"0.00013420","RA_OF_ASC_NODE":"312.6764","ELEMENT_SET_NO":"999","EPOCH":"2022-06-15T12:17:48.005952","COUNTRY_CODE":"US","LAUNCH_DATE":"2020-08-18","INCLINATION":"53.0537","FILE":"3496839","OBJECT_ID":"2020-057BA","CENTER_NAME":"EARTH","SEMIMAJOR_AXIS":"6905.819","REF_FRAME":"TEME","REV_AT_EPOCH":"10131","MEAN_ANOMALY":"193.8590","EPHEMERIS_TYPE":"0","DECAY_DATE":null,"MEAN_MOTION_DOT":"0.00031875","PERIAPSIS":"526.757","MEAN_MOTION":"15.12794747","MEAN_MOTION_DDOT":"0.0000000000000","MEAN_ELEMENT_THEORY":"SGP4","OBJECT_TYPE":"PAYLOAD","CLASSIFICATION_TYPE":"U","OBJECT_NAME":"STARLINK-1613","APOAPSIS":"528.610","GP_ID":"206212009","SITE":"AFETR","RCS_SIZE":"LARGE","BSTAR":"0.00180390000000","NORAD_CAT_ID":"46165","TLE_LINE1":"1 46165U 20057BA  22166.51236118  .00031875  00000-0  18039-2 0  9997"},{"APOAPSIS":"548.122","GP_ID":"206234246","SITE":"AFETR","OBJECT_NAME":"STARLINK-1615","CLASSIFICATION_TYPE":"U","OBJECT_TYPE":"PAYLOAD","MEAN_MOTION_DDOT":"0.0000000000000","MEAN_ELEMENT_THEORY":"SGP4","NORAD_CAT_ID":"46166","TLE_LINE1":"1 46166U 20057BB  22166.68421110 -.00000473  00000-0 -12858-4 0  9991","RCS_SIZE":"LARGE","BSTAR":"-0.00001285800000","LAUNCH_DATE":"2020-08-18","INCLINATION":"53.0558","FILE":"3496999","RA_OF_ASC_NODE":"315.3874","ELEMENT_SET_NO":"999","COUNTRY_CODE":"US","EPOCH":"2022-06-15T16:25:15.839040","TIME_SYSTEM":"UTC","PERIOD":"95.592","TLE_LINE2":"2 46166  53.0558 315.3874 0001321  78.6928 281.4209 15.06402027100632","ARG_OF_PERICENTER":"78.6928","ECCENTRICITY":"0.00013210","MEAN_ANOMALY":"281.4209","REV_AT_EPOCH":"10063","DECAY_DATE":null,"EPHEMERIS_TYPE":"0","PERIAPSIS":"546.293","MEAN_MOTION":"15.06402027","MEAN_MOTION_DOT":"-0.00000473","SEMIMAJOR_AXIS":"6925.342","REF_FRAME":"TEME","OBJECT_ID":"2020-057BB","CENTER_NAME":"EARTH"},{"TLE_LINE1":"1 46167U 20057BC  22166.69895504  .00000012  00000-0  19684-4 0  9996","NORAD_CAT_ID":"46167","RCS_SIZE":"LARGE","BSTAR":"0.00001968400000","APOAPSIS":"548.131","SITE":"AFETR","GP_ID":"206234496","OBJECT_NAME":"STARLINK-1626","OBJECT_TYPE":"PAYLOAD","CLASSIFICATION_TYPE":"U","MEAN_ELEMENT_THEORY":"SGP4","MEAN_MOTION_DDOT":"0.0000000000000","REV_AT_EPOCH":"10063","MEAN_ANOMALY":"296.3890","MEAN_MOTION_DOT":"0.00000012","PERIAPSIS":"546.266","MEAN_MOTION":"15.06404914","DECAY_DATE":null,"EPHEMERIS_TYPE":"0","SEMIMAJOR_AXIS":"6925.333","REF_FRAME":"TEME","OBJECT_ID":"2020-057BC","CENTER_NAME":"EARTH","LAUNCH_DATE":"2020-08-18","FILE":"3496999","INCLINATION":"53.0539","RA_OF_ASC_NODE":"315.3246","EPOCH":"2022-06-15T16:46:29.715456","COUNTRY_CODE":"US","ELEMENT_SET_NO":"999","TLE_LINE2":"2 46167  53.0539 315.3246 0001347  63.7237 296.3890 15.06404914100639","ECCENTRICITY":"0.00013470","PERIOD":"95.592","ARG_OF_PERICENTER":"63.7237","TIME_SYSTEM":"UTC"},{"INCLINATION":"53.0550","FILE":"3497002","LAUNCH_DATE":"2020-08-18","TIME_SYSTEM":"UTC","TLE_LINE2":"2 46168  53.0550 264.0095 0001322  68.8144 291.2986 15.06390757101372","PERIOD":"95.593","ECCENTRICITY":"0.00013220","ARG_OF_PERICENTER":"68.8144","ELEMENT_SET_NO":"999","EPOCH":"2022-06-16T00:13:41.739168","COUNTRY_CODE":"US","RA_OF_ASC_NODE":"264.0095","REF_FRAME":"TEME","SEMIMAJOR_AXIS":"6925.377","DECAY_DATE":null,"EPHEMERIS_TYPE":"0","PERIAPSIS":"546.326","MEAN_MOTION":"15.06390757","MEAN_MOTION_DOT":"0.00000211","MEAN_ANOMALY":"291.2986","REV_AT_EPOCH":"10137","CENTER_NAME":"EARTH","OBJECT_ID":"2020-057BD","OBJECT_NAME":"STARLINK-1627","GP_ID":"206286997","SITE":"AFETR","APOAPSIS":"548.157","MEAN_MOTION_DDOT":"0.0000000000000","MEAN_ELEMENT_THEORY":"SGP4","CLASSIFICATION_TYPE":"U","OBJECT_TYPE":"PAYLOAD","BSTAR":"0.00003309100000","RCS_SIZE":"LARGE","NORAD_CAT_ID":"46168","TLE_LINE1":"1 46168U 20057BD  22167.00951087  .00000211  00000-0  33091-4 0  9991"},{"LAUNCH_DATE":"2020-08-18","FILE":"3496794","INCLINATION":"53.0013","RA_OF_ASC_NODE":"316.4263","COUNTRY_CODE":"US","EPOCH":"2022-06-15T10:47:52.757952","ELEMENT_SET_NO":"999","TLE_LINE2":"2 46169  53.0013 316.4263 0001268  81.1304 278.9828 15.05575759100553","ARG_OF_PERICENTER":"81.1304","PERIOD":"95.644","ECCENTRICITY":"0.00012680","TIME_SYSTEM":"UTC","MEAN_ANOMALY":"278.9828","REV_AT_EPOCH":"10055","PERIAPSIS":"548.862","MEAN_MOTION":"15.05575759","MEAN_MOTION_DOT":"-0.00000750","DECAY_DATE":null,"EPHEMERIS_TYPE":"0","SEMIMAJOR_AXIS":"6927.876","REF_FRAME":"TEME","OBJECT_ID":"2020-057BE","CENTER_NAME":"EARTH","APOAPSIS":"550.619","SITE":"AFETR","GP_ID":"206206300","OBJECT_NAME":"STARLINK-1628","CLASSIFICATION_TYPE":"U","OBJECT_TYPE":"PAYLOAD","MEAN_ELEMENT_THEORY":"SGP4","MEAN_MOTION_DDOT":"0.0000000000000","TLE_LINE1":"1 46169U 20057BE  22166.44991618 -.00000750  00000-0 -32293-4 0  9996","NORAD_CAT_ID":"46169","RCS_SIZE":"LARGE","BSTAR":"-0.00003229300000"}];
